[{"OBJECT_NAME":"LEMUR-2-ALISIA","OBJECT_ID":"2025-009DB","EPOCH":"2026-04-25T17:14:15.887616","MEAN_MOTION":15.01918288,"ECCENTRICITY":0.00031701,"INCLINATION":97.6911,"RA_OF_ASC_NODE":198.273,"ARG_OF_PERICENTER":46.5819,"MEAN_ANOMALY":313.5668,"EPHEMERIS_TYPE":0,"CLASSIFICATION_TYPE":"U","NORAD_CAT_ID":62706,"ELEMENT_SET_NO":999,"REV_AT_EPOCH":9228,"BSTAR":0.0006842379,"MEAN_MOTION_DOT":8.894e-5,"MEAN_MOTION_DDOT":0},{"OBJECT_NAME":"LEMUR-2-ROUNDTRIPPER","OBJECT_ID":"2025-009DG","EPOCH":"2026-04-25T18:40:13.176192","MEAN_MOTION":15.02935388,"ECCENTRICITY":0.00029909,"INCLINATION":97.7235,"RA_OF_ASC_NODE":198.5699,"ARG_OF_PERICENTER":320.8357,"MEAN_ANOMALY":39.2651,"EPHEMERIS_TYPE":0,"CLASSIFICATION_TYPE":"U","NORAD_CAT_ID":62711,"ELEMENT_SET_NO":999,"REV_AT_EPOCH":6975,"BSTAR":0.00071674909,"MEAN_MOTION_DOT":9.574e-5,"MEAN_MOTION_DDOT":0},{"OBJECT_NAME":"LEMUR-2-MYNAMEISJEFF","OBJECT_ID":"2025-009DH","EPOCH":"2026-04-25T18:37:59.791872","MEAN_MOTION":15.02932,"ECCENTRICITY":0.00021722,"INCLINATION":97.7284,"RA_OF_ASC_NODE":198.9175,"ARG_OF_PERICENTER":18.5634,"MEAN_ANOMALY":341.567,"EPHEMERIS_TYPE":0,"CLASSIFICATION_TYPE":"U","NORAD_CAT_ID":62712,"ELEMENT_SET_NO":999,"REV_AT_EPOCH":6975,"BSTAR":0.00069359043,"MEAN_MOTION_DOT":9.261e-5,"MEAN_MOTION_DDOT":0},{"OBJECT_NAME":"LEMUR-2-LEIA-PHILIP","OBJECT_ID":"2025-052AN","EPOCH":"2026-04-25T16:10:32.525184","MEAN_MOTION":14.97165562,"ECCENTRICITY":0.00053056,"INCLINATION":97.6898,"RA_OF_ASC_NODE":8.4997,"ARG_OF_PERICENTER":54.9031,"MEAN_ANOMALY":305.2688,"EPHEMERIS_TYPE":0,"CLASSIFICATION_TYPE":"U","NORAD_CAT_ID":63246,"ELEMENT_SET_NO":999,"REV_AT_EPOCH":6081,"BSTAR":0.00021480084,"MEAN_MOTION_DOT":2.425e-5,"MEAN_MOTION_DDOT":0},{"OBJECT_NAME":"LEMUR-2-LIA-MARTIN","OBJECT_ID":"2025-052AQ","EPOCH":"2026-04-25T16:34:03.988416","MEAN_MOTION":14.97316644,"ECCENTRICITY":0.00036318,"INCLINATION":97.6941,"RA_OF_ASC_NODE":8.9252,"ARG_OF_PERICENTER":25.5851,"MEAN_ANOMALY":334.555,"EPHEMERIS_TYPE":0,"CLASSIFICATION_TYPE":"U","NORAD_CAT_ID":63248,"ELEMENT_SET_NO":999,"REV_AT_EPOCH":6082,"BSTAR":0.0003984453,"MEAN_MOTION_DOT":4.566e-5,"MEAN_MOTION_DDOT":0},{"OBJECT_NAME":"LEMUR-2-DELOITTE-1","OBJECT_ID":"2025-052BB","EPOCH":"2026-04-25T15:52:15.544128","MEAN_MOTION":14.97216476,"ECCENTRICITY":9.479e-5,"INCLINATION":97.6985,"RA_OF_ASC_NODE":9.2199,"ARG_OF_PERICENTER":59.242,"MEAN_ANOMALY":300.8895,"EPHEMERIS_TYPE":0,"CLASSIFICATION_TYPE":"U","NORAD_CAT_ID":63259,"ELEMENT_SET_NO":999,"REV_AT_EPOCH":6083,"BSTAR":0.0003680276,"MEAN_MOTION_DOT":4.201e-5,"MEAN_MOTION_DDOT":0},{"OBJECT_NAME":"LEMUR-2-EMERSONROSE","OBJECT_ID":"2025-052BD","EPOCH":"2026-04-25T16:31:04.119168","MEAN_MOTION":14.98680885,"ECCENTRICITY":6.709e-5,"INCLINATION":97.6946,"RA_OF_ASC_NODE":9.6997,"ARG_OF_PERICENTER":204.2158,"MEAN_ANOMALY":155.9033,"EPHEMERIS_TYPE":0,"CLASSIFICATION_TYPE":"U","NORAD_CAT_ID":63261,"ELEMENT_SET_NO":999,"REV_AT_EPOCH":6087,"BSTAR":0.00029194841,"MEAN_MOTION_DOT":3.45e-5,"MEAN_MOTION_DDOT":0},{"OBJECT_NAME":"LEMUR-2-MARACHE-FRAN","OBJECT_ID":"2025-052BE","EPOCH":"2026-04-25T23:05:33.677376","MEAN_MOTION":14.99500501,"ECCENTRICITY":0.00027625,"INCLINATION":97.6926,"RA_OF_ASC_NODE":10.2136,"ARG_OF_PERICENTER":189.5302,"MEAN_ANOMALY":170.5869,"EPHEMERIS_TYPE":0,"CLASSIFICATION_TYPE":"U","NORAD_CAT_ID":63262,"ELEMENT_SET_NO":999,"REV_AT_EPOCH":6093,"BSTAR":0.00053602803,"MEAN_MOTION_DOT":6.524e-5,"MEAN_MOTION_DDOT":0},{"OBJECT_NAME":"LEMUR-2-THEFALCONER","OBJECT_ID":"2025-052BG","EPOCH":"2026-04-25T16:19:48.571392","MEAN_MOTION":14.97013264,"ECCENTRICITY":0.00023011,"INCLINATION":97.6917,"RA_OF_ASC_NODE":8.9152,"ARG_OF_PERICENTER":137.1105,"MEAN_ANOMALY":223.0296,"EPHEMERIS_TYPE":0,"CLASSIFICATION_TYPE":"U","NORAD_CAT_ID":63264,"ELEMENT_SET_NO":999,"REV_AT_EPOCH":6083,"BSTAR":0.00031490281,"MEAN_MOTION_DOT":3.568e-5,"MEAN_MOTION_DDOT":0},{"OBJECT_NAME":"LEMUR-2-UNTITLED-SC","OBJECT_ID":"2025-061A","EPOCH":"2026-04-25T20:25:48.952992","MEAN_MOTION":15.13091508,"ECCENTRICITY":0.00208573,"INCLINATION":97.5608,"RA_OF_ASC_NODE":91.6215,"ARG_OF_PERICENTER":86.0351,"MEAN_ANOMALY":274.3264,"EPHEMERIS_TYPE":0,"CLASSIFICATION_TYPE":"U","NORAD_CAT_ID":63351,"ELEMENT_SET_NO":999,"REV_AT_EPOCH":5967,"BSTAR":0.00024357339,"MEAN_MOTION_DOT":4.267e-5,"MEAN_MOTION_DDOT":0},{"OBJECT_NAME":"LEMUR-2-ESPERANZA","OBJECT_ID":"2025-061B","EPOCH":"2026-04-25T21:32:40.392672","MEAN_MOTION":15.13178706,"ECCENTRICITY":0.00203978,"INCLINATION":97.5614,"RA_OF_ASC_NODE":91.7491,"ARG_OF_PERICENTER":85.3662,"MEAN_ANOMALY":274.9898,"EPHEMERIS_TYPE":0,"CLASSIFICATION_TYPE":"U","NORAD_CAT_ID":63352,"ELEMENT_SET_NO":999,"REV_AT_EPOCH":5968,"BSTAR":0.00025200808,"MEAN_MOTION_DOT":4.427e-5,"MEAN_MOTION_DDOT":0},{"OBJECT_NAME":"LEMUR-2-KREMPEL-BRO2","OBJECT_ID":"2025-061C","EPOCH":"2026-04-25T22:32:54.656736","MEAN_MOTION":15.13604235,"ECCENTRICITY":0.00212784,"INCLINATION":97.5662,"RA_OF_ASC_NODE":92.2574,"ARG_OF_PERICENTER":78.4335,"MEAN_ANOMALY":281.9284,"EPHEMERIS_TYPE":0,"CLASSIFICATION_TYPE":"U","NORAD_CAT_ID":63353,"ELEMENT_SET_NO":999,"REV_AT_EPOCH":5970,"BSTAR":0.00029132524,"MEAN_MOTION_DOT":5.192e-5,"MEAN_MOTION_DDOT":0},{"OBJECT_NAME":"LEMUR-2-THERMORAPTOR","OBJECT_ID":"2025-061D","EPOCH":"2026-04-25T15:50:00.202848","MEAN_MOTION":15.13669753,"ECCENTRICITY":0.00210726,"INCLINATION":97.5668,"RA_OF_ASC_NODE":92.0455,"ARG_OF_PERICENTER":78.4446,"MEAN_ANOMALY":281.915,"EPHEMERIS_TYPE":0,"CLASSIFICATION_TYPE":"U","NORAD_CAT_ID":63354,"ELEMENT_SET_NO":999,"REV_AT_EPOCH":5966,"BSTAR":0.00023355624,"MEAN_MOTION_DOT":4.156e-5,"MEAN_MOTION_DDOT":0},{"OBJECT_NAME":"LEMUR-2-NEUROSPICY","OBJECT_ID":"2025-061E","EPOCH":"2026-04-25T21:35:37.052160","MEAN_MOTION":15.1378658,"ECCENTRICITY":0.00188939,"INCLINATION":97.5592,"RA_OF_ASC_NODE":91.9508,"ARG_OF_PERICENTER":81.1047,"MEAN_ANOMALY":279.2322,"EPHEMERIS_TYPE":0,"CLASSIFICATION_TYPE":"U","NORAD_CAT_ID":63355,"ELEMENT_SET_NO":999,"REV_AT_EPOCH":5970,"BSTAR":0.00026774145,"MEAN_MOTION_DOT":4.785e-5,"MEAN_MOTION_DDOT":0},{"OBJECT_NAME":"LEMUR-2-TILLINFINITY","OBJECT_ID":"2025-061F","EPOCH":"2026-04-25T21:20:28.241664","MEAN_MOTION":15.14369703,"ECCENTRICITY":0.00199759,"INCLINATION":97.558,"RA_OF_ASC_NODE":92.1942,"ARG_OF_PERICENTER":70.3315,"MEAN_ANOMALY":290.007,"EPHEMERIS_TYPE":0,"CLASSIFICATION_TYPE":"U","NORAD_CAT_ID":63356,"ELEMENT_SET_NO":999,"REV_AT_EPOCH":5972,"BSTAR":0.00030118068,"MEAN_MOTION_DOT":5.484e-5,"MEAN_MOTION_DDOT":0},{"OBJECT_NAME":"LEMUR-2-KREMPEL-BRO1","OBJECT_ID":"2025-061G","EPOCH":"2026-04-25T18:57:29.616768","MEAN_MOTION":15.14183103,"ECCENTRICITY":0.00206954,"INCLINATION":97.5582,"RA_OF_ASC_NODE":92.0261,"ARG_OF_PERICENTER":71.7227,"MEAN_ANOMALY":288.6254,"EPHEMERIS_TYPE":0,"CLASSIFICATION_TYPE":"U","NORAD_CAT_ID":63357,"ELEMENT_SET_NO":999,"REV_AT_EPOCH":5970,"BSTAR":0.00025438206,"MEAN_MOTION_DOT":4.598e-5,"MEAN_MOTION_DDOT":0}]
